OSCAR 7 (AO-7)          
1 07530U 74089B   26064.31485458 -.00000051  00000+0 -25500-4 0  9992
2 07530 101.9970  76.4575 0012005 330.6143  40.4369 12.53696293347507
PHASE 3B (AO-10)        
1 14129U 83058B   26061.53393855 -.00000164  00000+0  00000+0 0  9997
2 14129  25.9320 237.4860 6049007  86.0782 336.7646  2.05874052293290
UOSAT 2 (UO-11)         
1 14781U 84021B   26064.17571270  .00002427  00000+0  25422-3 0  9996
2 14781  97.7941  31.0044 0008077 157.2174 202.9404 14.90485480241631
LUSAT (LO-19)           
1 20442U 90005G   26064.29522925  .00000217  00000+0  94242-4 0  9994
2 20442  98.8937  83.1977 0012179 146.7228 213.4724 14.34085945887507
EYESAT A (AO-27)        
1 22825U 93061C   26064.16188573  .00000152  00000+0  74702-4 0  9996
2 22825  98.6991 131.5684 0009145  51.1791 309.0206 14.30911277692129
ITAMSAT (IO-26)         
1 22826U 93061D   26064.17218602  .00000171  00000+0  81297-4 0  9993
2 22826  98.6939 131.4858 0009439  35.6558 324.5254 14.31335176692436
RADIO ROSTO (RS15)      
1 23439U 94085A   26064.17238737 -.00000011  00000+0  88804-3 0  9996
2 23439  64.8145 111.4397 0152505  22.8797 337.8829 11.27583890284176
JAS-2 (FO-29)           
1 24278U 96046B   26064.21079271 -.00000016  00000+0  20117-4 0  9997
2 24278  98.5387 287.2361 0350016   6.3853 354.1580 13.53268489459108
TECHSAT 1B (GO-32)      
1 25397U 98043D   26064.24445416  .00000125  00000+0  74198-4 0  9998
2 25397  99.0023  54.4082 0001937 126.5431 233.5926 14.24404670436539
ISS (ZARYA)             
1 25544U 98067A   26064.25394533  .00008604  00000+0  16717-3 0  9994
2 25544  51.6314  94.2866 0008160 158.8383 201.2944 15.48454548555643
PCSAT (NO-44)           
1 26931U 01043C   26064.22780750  .00000275  00000+0  13334-3 0  9998
2 26931  67.0508 153.1519 0007018 265.3094  94.7206 14.31909597275560
SAUDISAT 1C (SO-50)     
1 27607U 02058C   26064.23351295  .00002468  00000+0  30811-3 0  9990
2 27607  64.5518  90.5545 0075168 281.5083  77.7589 14.82761915249041
CUTE-1 (CO-55)          
1 27844U 03031E   26063.99746414  .00000438  00000+0  20884-3 0  9992
2 27844  98.6779  73.8545 0010529 124.7056 235.5116 14.24261503176844
CUBESAT XI-IV (CO-57)   
1 27848U 03031J   26062.94998598  .00000409  00000+0  19861-3 0  9993
2 27848  98.6808  72.6171 0010137 144.0340 216.1522 14.23556668176405
MOZHAETS 4 (RS22)       
1 27939U 03042A   26064.31757094  .00001620  00000+0  25904-3 0  9994
2 27939  98.3425 245.7569 0010303 235.4047 246.3730 14.73238702200254
CUBESAT XI-V            
1 28895U 05043F   26063.89060449  .00002715  00000+0  43726-3 0  9990
2 28895  98.2820 217.4242 0014463 172.5455 187.5969 14.72293633 86405
