[{"OBJECT_NAME":"OSCAR 7 (AO-7)","OBJECT_ID":"1974-089B","EPOCH":"2026-03-05T07:33:23.435712","MEAN_MOTION":12.53696293,"ECCENTRICITY":0.00120052,"INCLINATION":101.997,"RA_OF_ASC_NODE":76.4575,"ARG_OF_PERICENTER":330.6143,"MEAN_ANOMALY":40.4369,"EPHEMERIS_TYPE":0,"CLASSIFICATION_TYPE":"U","NORAD_CAT_ID":7530,"ELEMENT_SET_NO":999,"REV_AT_EPOCH":34750,"BSTAR":-2.550044e-5,"MEAN_MOTION_DOT":-5.1e-7,"MEAN_MOTION_DDOT":0},{"OBJECT_NAME":"PHASE 3B (AO-10)","OBJECT_ID":"1983-058B","EPOCH":"2026-03-02T12:48:52.290720","MEAN_MOTION":2.05874052,"ECCENTRICITY":0.6049007,"INCLINATION":25.932,"RA_OF_ASC_NODE":237.486,"ARG_OF_PERICENTER":86.0782,"MEAN_ANOMALY":336.7646,"EPHEMERIS_TYPE":0,"CLASSIFICATION_TYPE":"U","NORAD_CAT_ID":14129,"ELEMENT_SET_NO":999,"REV_AT_EPOCH":29329,"BSTAR":0,"MEAN_MOTION_DOT":-1.64e-6,"MEAN_MOTION_DDOT":0},{"OBJECT_NAME":"UOSAT 2 (UO-11)","OBJECT_ID":"1984-021B","EPOCH":"2026-03-05T04:13:01.577280","MEAN_MOTION":14.9048548,"ECCENTRICITY":0.00080771,"INCLINATION":97.7941,"RA_OF_ASC_NODE":31.0044,"ARG_OF_PERICENTER":157.2174,"MEAN_ANOMALY":202.9404,"EPHEMERIS_TYPE":0,"CLASSIFICATION_TYPE":"U","NORAD_CAT_ID":14781,"ELEMENT_SET_NO":999,"REV_AT_EPOCH":24163,"BSTAR":0.00025422387,"MEAN_MOTION_DOT":2.427e-5,"MEAN_MOTION_DDOT":0},{"OBJECT_NAME":"LUSAT (LO-19)","OBJECT_ID":"1990-005G","EPOCH":"2026-03-05T07:05:07.807200","MEAN_MOTION":14.34085945,"ECCENTRICITY":0.00121799,"INCLINATION":98.8937,"RA_OF_ASC_NODE":83.1977,"ARG_OF_PERICENTER":146.7228,"MEAN_ANOMALY":213.4724,"EPHEMERIS_TYPE":0,"CLASSIFICATION_TYPE":"U","NORAD_CAT_ID":20442,"ELEMENT_SET_NO":999,"REV_AT_EPOCH":88750,"BSTAR":9.4242039e-5,"MEAN_MOTION_DOT":2.17e-6,"MEAN_MOTION_DDOT":0},{"OBJECT_NAME":"EYESAT A (AO-27)","OBJECT_ID":"1993-061C","EPOCH":"2026-03-05T03:53:06.927072","MEAN_MOTION":14.30911277,"ECCENTRICITY":0.00091456,"INCLINATION":98.6991,"RA_OF_ASC_NODE":131.5684,"ARG_OF_PERICENTER":51.1791,"MEAN_ANOMALY":309.0206,"EPHEMERIS_TYPE":0,"CLASSIFICATION_TYPE":"U","NORAD_CAT_ID":22825,"ELEMENT_SET_NO":999,"REV_AT_EPOCH":69212,"BSTAR":7.4702114e-5,"MEAN_MOTION_DOT":1.52e-6,"MEAN_MOTION_DDOT":0},{"OBJECT_NAME":"ITAMSAT (IO-26)","OBJECT_ID":"1993-061D","EPOCH":"2026-03-05T04:07:56.872128","MEAN_MOTION":14.31335176,"ECCENTRICITY":0.00094397,"INCLINATION":98.6939,"RA_OF_ASC_NODE":131.4858,"ARG_OF_PERICENTER":35.6558,"MEAN_ANOMALY":324.5254,"EPHEMERIS_TYPE":0,"CLASSIFICATION_TYPE":"U","NORAD_CAT_ID":22826,"ELEMENT_SET_NO":999,"REV_AT_EPOCH":69243,"BSTAR":8.1297494e-5,"MEAN_MOTION_DOT":1.71e-6,"MEAN_MOTION_DDOT":0},{"OBJECT_NAME":"RADIO ROSTO (RS15)","OBJECT_ID":"1994-085A","EPOCH":"2026-03-05T04:08:14.268768","MEAN_MOTION":11.2758389,"ECCENTRICITY":0.01525057,"INCLINATION":64.8145,"RA_OF_ASC_NODE":111.4397,"ARG_OF_PERICENTER":22.8797,"MEAN_ANOMALY":337.8829,"EPHEMERIS_TYPE":0,"CLASSIFICATION_TYPE":"U","NORAD_CAT_ID":23439,"ELEMENT_SET_NO":999,"REV_AT_EPOCH":28417,"BSTAR":0.00088804285,"MEAN_MOTION_DOT":-1.1e-7,"MEAN_MOTION_DDOT":0},{"OBJECT_NAME":"JAS-2 (FO-29)","OBJECT_ID":"1996-046B","EPOCH":"2026-03-05T05:03:32.490144","MEAN_MOTION":13.53268489,"ECCENTRICITY":0.0350016,"INCLINATION":98.5387,"RA_OF_ASC_NODE":287.2361,"ARG_OF_PERICENTER":6.3853,"MEAN_ANOMALY":354.158,"EPHEMERIS_TYPE":0,"CLASSIFICATION_TYPE":"U","NORAD_CAT_ID":24278,"ELEMENT_SET_NO":999,"REV_AT_EPOCH":45910,"BSTAR":2.0117002e-5,"MEAN_MOTION_DOT":-1.6e-7,"MEAN_MOTION_DDOT":0},{"OBJECT_NAME":"TECHSAT 1B (GO-32)","OBJECT_ID":"1998-043D","EPOCH":"2026-03-05T05:52:00.839424","MEAN_MOTION":14.2440467,"ECCENTRICITY":0.00019372,"INCLINATION":99.0023,"RA_OF_ASC_NODE":54.4082,"ARG_OF_PERICENTER":126.5431,"MEAN_ANOMALY":233.5926,"EPHEMERIS_TYPE":0,"CLASSIFICATION_TYPE":"U","NORAD_CAT_ID":25397,"ELEMENT_SET_NO":999,"REV_AT_EPOCH":43653,"BSTAR":7.4197624e-5,"MEAN_MOTION_DOT":1.25e-6,"MEAN_MOTION_DDOT":0},{"OBJECT_NAME":"ISS (ZARYA)","OBJECT_ID":"1998-067A","EPOCH":"2026-03-05T06:05:40.876512","MEAN_MOTION":15.48454548,"ECCENTRICITY":0.00081607,"INCLINATION":51.6314,"RA_OF_ASC_NODE":94.2866,"ARG_OF_PERICENTER":158.8383,"MEAN_ANOMALY":201.2944,"EPHEMERIS_TYPE":0,"CLASSIFICATION_TYPE":"U","NORAD_CAT_ID":25544,"ELEMENT_SET_NO":999,"REV_AT_EPOCH":55564,"BSTAR":0.00016717327,"MEAN_MOTION_DOT":8.604e-5,"MEAN_MOTION_DDOT":0},{"OBJECT_NAME":"PCSAT (NO-44)","OBJECT_ID":"2001-043C","EPOCH":"2026-03-05T05:28:02.568000","MEAN_MOTION":14.31909597,"ECCENTRICITY":0.00070188,"INCLINATION":67.0508,"RA_OF_ASC_NODE":153.1519,"ARG_OF_PERICENTER":265.3094,"MEAN_ANOMALY":94.7206,"EPHEMERIS_TYPE":0,"CLASSIFICATION_TYPE":"U","NORAD_CAT_ID":26931,"ELEMENT_SET_NO":999,"REV_AT_EPOCH":27556,"BSTAR":0.00013333547,"MEAN_MOTION_DOT":2.75e-6,"MEAN_MOTION_DDOT":0},{"OBJECT_NAME":"SAUDISAT 1C (SO-50)","OBJECT_ID":"2002-058C","EPOCH":"2026-03-05T05:36:15.518880","MEAN_MOTION":14.82761915,"ECCENTRICITY":0.00751687,"INCLINATION":64.5518,"RA_OF_ASC_NODE":90.5545,"ARG_OF_PERICENTER":281.5083,"MEAN_ANOMALY":77.7589,"EPHEMERIS_TYPE":0,"CLASSIFICATION_TYPE":"U","NORAD_CAT_ID":27607,"ELEMENT_SET_NO":999,"REV_AT_EPOCH":24904,"BSTAR":0.0003081088,"MEAN_MOTION_DOT":2.468e-5,"MEAN_MOTION_DDOT":0},{"OBJECT_NAME":"CUTE-1 (CO-55)","OBJECT_ID":"2003-031E","EPOCH":"2026-03-04T23:56:20.901696","MEAN_MOTION":14.24261503,"ECCENTRICITY":0.00105298,"INCLINATION":98.6779,"RA_OF_ASC_NODE":73.8545,"ARG_OF_PERICENTER":124.7056,"MEAN_ANOMALY":235.5116,"EPHEMERIS_TYPE":0,"CLASSIFICATION_TYPE":"U","NORAD_CAT_ID":27844,"ELEMENT_SET_NO":999,"REV_AT_EPOCH":17684,"BSTAR":0.00020884486,"MEAN_MOTION_DOT":4.38e-6,"MEAN_MOTION_DDOT":0},{"OBJECT_NAME":"CUBESAT XI-IV (CO-57)","OBJECT_ID":"2003-031J","EPOCH":"2026-03-03T22:47:58.788672","MEAN_MOTION":14.23556668,"ECCENTRICITY":0.0010137,"INCLINATION":98.6808,"RA_OF_ASC_NODE":72.6171,"ARG_OF_PERICENTER":144.034,"MEAN_ANOMALY":216.1522,"EPHEMERIS_TYPE":0,"CLASSIFICATION_TYPE":"U","NORAD_CAT_ID":27848,"ELEMENT_SET_NO":999,"REV_AT_EPOCH":17640,"BSTAR":0.00019861,"MEAN_MOTION_DOT":4.09e-6,"MEAN_MOTION_DDOT":0},{"OBJECT_NAME":"MOZHAETS 4 (RS22)","OBJECT_ID":"2003-042A","EPOCH":"2026-03-05T07:37:18.129216","MEAN_MOTION":14.73238702,"ECCENTRICITY":0.00103038,"INCLINATION":98.3425,"RA_OF_ASC_NODE":245.7569,"ARG_OF_PERICENTER":235.4047,"MEAN_ANOMALY":246.373,"EPHEMERIS_TYPE":0,"CLASSIFICATION_TYPE":"U","NORAD_CAT_ID":27939,"ELEMENT_SET_NO":999,"REV_AT_EPOCH":20025,"BSTAR":0.00025903544,"MEAN_MOTION_DOT":1.62e-5,"MEAN_MOTION_DDOT":0},{"OBJECT_NAME":"CUBESAT XI-V","OBJECT_ID":"2005-043F","EPOCH":"2026-03-04T21:22:28.227936","MEAN_MOTION":14.72293633,"ECCENTRICITY":0.00144639,"INCLINATION":98.282,"RA_OF_ASC_NODE":217.4242,"ARG_OF_PERICENTER":172.5455,"MEAN_ANOMALY":187.5969,"EPHEMERIS_TYPE":0,"CLASSIFICATION_TYPE":"U","NORAD_CAT_ID":28895,"ELEMENT_SET_NO":999,"REV_AT_EPOCH":8640,"BSTAR":0.00043726295,"MEAN_MOTION_DOT":2.715e-5,"MEAN_MOTION_DDOT":0}]
